name,city,address,lat,lon,category,description
광주시립미술관,광주 북구,광주광역시 북구 하서로 52,35.1808412,126.8824016,관광지,
국립광주과학관,광주 북구,광주광역시 북구 첨단과기로 235,35.2296488,126.8500641,관광지,
광주문화예술회관,광주 북구,광주광역시 북구 북문대로 60,35.1777124,126.8817023,관광지,
당산나무집,광주 남구,광주광역시 남구 봉선중길 4,35.1297945,126.9114499,관광지,
먹태상회,광주 광산구,광주광역시 광산구 송정로8번길 36,35.1355762,126.7912717,관광지,
[무등산 옛길 3구간] 장원삼거리~환벽당,광주 동구,광주광역시 동구 산수동,35.1569342,126.9342774,관광지,
광주-기아 챔피언스 필드,광주 북구,광주광역시 북구 서림로 10,35.1682592,126.8884114,관광지,
전일빌딩245,광주 동구,광주광역시 동구 금남로 245,35.1483528,126.9187576,관광지,
광주 송정도서관,광주 광산구,광주광역시 광산구 송정공원로 8-13,35.1453164,126.7996039,관광지,
광주월드컵경기장,광주 서구,광주광역시 서구 금화로 240,35.1329733,126.8755729,관광지,
이응노 미술관,대전 서구,대전광역시 서구 둔산대로 157,36.368147,127.3819873,관광지,
한밭종합운동장,대전 중구,대전광역시 중구 대종로 373,36.3172026,127.4285703,관광지,
전통나래관,대전 동구,대전광역시 동구 철갑1길 15,36.3352969,127.4372982,관광지,
유성문화원,대전 유성구,대전광역시 유성구 문화원로 46,36.3598081,127.340868,관광지,
대전학생교육문화원,대전 중구,대전광역시 중구 동서대로 1360,36.3286246,127.410481,관광지,
대전선사박물관,대전 유성구,대전광역시 유성구 노은동로 126,36.3718842,127.3238448,관광지,
추동인공생태습지,대전 동구,대전광역시 동구 천개동로 41,36.3732866,127.4707057,관광지,
대전어린이회관,대전 유성구,대전광역시 유성구 월드컵대로 32,36.364793,127.3247552,관광지,
대전시립미술관,대전 서구,대전광역시 서구 둔산대로 155,36.366783,127.385739,관광지,
대전한밭도서관,대전 중구,대전광역시 중구 서문로 10,36.3098158,127.4096227,관광지,
국립 신불산폭포자연휴양림,울산 울주군,울산광역시 울주군 상북면 억새벌길 200-78,35.5439073,129.0232721,관광지,
울산테마식물수목원,울산 동구,울산광역시 동구 쇠평길 33-1,35.5538592,129.426626,관광지,
울산 12경,울산 중구,울산광역시 남구 태화동,35.5534338,129.2911427,관광지,
선바위(입암),울산 울주군,울산광역시 울주군 범서읍,35.5690514,129.2300426,관광지,
회야댐 생태공원,울산 울주군,울산광역시 울주군 웅촌면 통천리 산109-1번지,35.4681491,129.2452655,관광지,
고기와국수이야기 명촌,울산 북구,울산광역시 북구 명촌23길 38,35.557193,129.3559451,관광지,
고기와국수이야기 일산,울산 동구,울산광역시 동구 해수욕장5길 8,35.4943483,129.4300035,관광지,
솔마루길,울산 남구,울산광역시 남구 돋질로 233,35.5437296,129.3301153,관광지,
울산종합운동장,울산 중구,울산광역시 중구 염포로 55,35.5624249,129.3472741,관광지,
미포구장,울산 동구,울산광역시 동구 봉수로 27-90,35.4915298,129.4144929,관광지,
세종문화원,세종 한솔동,세종특별자치시 조치원읍 문화로 17,36.6032717,127.3006263,관광지,
충청남도 산림박물관,세종 한솔동,세종특별자치시 금남면 산림박물관길 110,36.4374345,127.2330097,관광지,
"금강자연휴양림(금강수목원,산림박물관)",세종 한솔동,세종특별자치시 금남면 산림박물관길 110,36.4374345,127.2330097,관광지,
국립세종도서관,세종 한솔동,세종특별자치시 다솜3로 48,36.4987002,127.2683932,관광지,
국립조세박물관,세종 한솔동,세종특별자치시 국세청로 8-14,36.4851527,127.2603266,관광지,
우주측지관측센터,세종 한솔동,세종특별자치시 연기면 월산공단로 276-71,36.523005,127.302376,관광지,
세종시립민속박물관,세종 한솔동,세종특별자치시 전의면 금사길 75,36.6087055,127.1703317,관광지,
세종문화예술회관,세종 한솔동,세종특별자치시 조치원읍 문예회관길 22,36.599605,127.28719,관광지,
세종승마클럽&아카데미,세종 한솔동,세종특별자치시 연서면 세종로 2156-9,36.5724448,127.2907636,관광지,
오이도,경기 시흥시,경기도 시흥시 오이도로 175,37.3452397,126.6879337,관광지,
누리천문대,경기 군포시,경기도 군포시 대야2로 139,37.3325122,126.9160717,관광지,
소래산산림욕장,경기 시흥시,경기도 시흥시 소래산길 41,37.4519014,126.7866523,관광지,
국립양평치유의숲,경기 양평군,경기도 양평군 양동면 황거길 262-10,37.454761,127.7196907,관광지,
바나나테이블,경기 수원시,경기도 수원시 영통구 센트럴타운로 85,37.290414,127.050727,관광지,
광교호수공원,경기 수원시,경기도 수원시 영통구 광교호수로 57,37.283123,127.0659168,관광지,
자연과별천문대,경기 가평군,경기도 가평군 북면 백둔로342번길 115-33,37.9128874,127.4741932,관광지,
망해암,경기 안양시,경기도 안양시 만안구 임곡로 245,37.4115699,126.9260895,관광지,
광명업사이클아트센터,경기 광명시,경기도 광명시 가학로85번길 142,37.4251755,126.8644482,관광지,
국립여성사전시관,경기 고양시,경기도 고양시 덕양구 화중로104번길 50,37.6357981,126.8339879,관광지,
강릉 경포해수욕장,강원 강릉시,강원도 강릉시 창해로 514,37.8057795,128.9074169,관광지,
망상해변,강원 동해시,강원도 동해시 망상동,37.557854,129.1046244,관광지,
덕산기 계곡,강원 정선군,강원도 정선군 정선읍,37.3797668,128.6616588,관광지,
법수치계곡,강원 양양군,강원도 양양군 현북면 법수치리,37.9031029,128.6056343,관광지,
치악산황둔청소년수련원,강원 원주시,강원도 원주시 신림면 소야1길 88,37.2559035,128.1702245,관광지,
맹방 벚꽃길,강원 삼척시,강원도 삼척시 근덕면,37.3792207,129.2258038,관광지,
화진포(화진포호),강원 고성군,강원도 고성군 거진읍,38.4362262,128.4525014,관광지,
방동약수,강원 인제군,강원도 인제군 기린면 방동약수로 89-59,37.943765,128.3963358,관광지,
청옥산(평창),강원 평창군,강원도 평창군 미탄면 청옥산길 557-4,37.4003439,128.5060692,관광지,
천곡황금박쥐동굴,강원 동해시,강원도 동해시 동굴로 50,37.517365,129.1102094,관광지,
진천공예마을,충북 진천군,충청북도 진천군 문백면 공예촌길 116-3,36.7898013,127.4567948,관광지,
선암계곡(하선암),충북 단양군,충청북도 단양군 단성면 선암계곡로 1337,36.90788,128.3093556,관광지,
"광혜원장 (3, 8일)",충북 진천군,충청북도 진천군 광혜원면 장기1안길 16,36.9889267,127.4453662,관광지,
말티재 전망대(말티고개),충북 보은군,충청북도 보은군 속리산면 속리산로 477,36.5227181,127.7955243,관광지,
탁사정,충북 제천시,충청북도 제천시 봉양읍 제원로 478,37.1667158,128.1062986,관광지,
청주시한국공예관,충북 청주시,충청북도 청주시 청원구 상당로 314,36.6554335,127.4901913,관광지,
강박사냉면숯불갈비,충북 제천시,충청북도 제천시 청전대로 91,37.1487004,128.208137,관광지,
꿀참나무,충북 제천시,충청북도 제천시 의림대로49길 13,37.1325856,128.2075076,관광지,
속리산국립공원(충북),충북 보은군,충북 보은군 속리산면 상판리,36.5141178,127.8260988,관광지,
수레의산자연휴양림,충북 음성군,충청북도 음성군 생극면 차생로 310-108,37.0378111,127.6525284,관광지,
서산 해미읍성,충남 서산시,충청남도 서산시 해미면 남문2로 143,36.7131204,126.5491704,관광지,
부여 정림사지 오층석탑 [유네스코 세계유산],충남 부여군,충청남도 부여군 부여읍 정림로 83,36.2787109,126.9142501,관광지,
천리포수목원,충남 태안군,충청남도 태안군 소원면 천리포1길 187,36.7987541,126.1496077,관광지,
천안 봉선홍경사 갈기비,충남 천안시,충청남도 천안시 서북구 성환읍 대홍3길 77-48,36.9431105,127.1347025,관광지,
외연도,충남 보령시,충청남도 보령시 오천면 외연도1길 64,36.2286264,126.0817868,관광지,
구름포해수욕장,충남 태안군,충청남도 태안군 소원면 의항리,36.7979007,126.1519171,관광지,
동학사계곡,충남 공주시,충청남도 공주시 반포면,36.3968922,127.2503067,관광지,
아도니스,충남 보령시,충청남도 보령시 머드로 134,36.3134016,126.5129443,관광지,
파도리해수욕장,충남 태안군,충청남도 태안군 소원면 모항파도로 49,36.7490506,126.135434,관광지,
칠갑산자연휴양림,충남 청양군,충청남도 청양군 대치면 칠갑산로 668-103,36.431286,126.8421516,관광지,
오암서원,경북 성주군,경북 성주군 수륜면 참별로 1,35.8316705,128.2103911,관광지,
망양정해수욕장,경북 울진군,경상북도 울진군 근남면 망양정로 1016,36.9674073,129.412321,관광지,
안동문화예술의전당,경북 안동시,경상북도 안동시 축제장길 66,36.5595259,128.7256906,관광지,
운주산승마자연휴양림,경북 영천시,경상북도 영천시 임고면 승마휴양림길 105,36.0376736,129.0008294,관광지,
유교랜드,경북 안동시,경상북도 안동시 관광단지로 346-30,36.569346,128.7785422,관광지,
제이스모텔,경북 안동시,경상북도 안동시 옥동길 97-6,36.5624782,128.702668,관광지,
구토란펜션 [한국관광 품질인증/Korea Quality],경북 경주시,경상북도 경주시 내남면 귀계길 17-25,35.7520083,129.1606824,관광지,
Valley(밸리)모텔,경북 경주시,경상북도 경주시 영불로 242-3,35.7835515,129.3280014,관광지,
문경활공랜드,경북 문경시,경상북도 문경시 문경읍 활공장길 80,36.7362395,128.1538599,관광지,
치산계곡,경북 영천시,경상북도 영천시 신녕면 치산리,36.0366643,128.7141485,관광지,
거제자연예술랜드,경남 거제시,경남 거제시 동부면 구천리,34.8081048,128.6340293,관광지,
국립 지리산자연휴양림,경남 함양군,경상남도 함양군 마천면 음정길 152,35.347852,127.6431363,관광지,
한려해상국립공원(사천),경남 사천시,경상남도 사천시 늑도동,34.9227084,128.0368871,관광지,
의신마을,경남 하동군,경상남도 하동군 화개면 대성리,35.2843631,127.6637639,관광지,
대원사계곡,경남 산청군,경남 산청군 삼장면,35.2982104,127.8317548,관광지,
사량도 지리산,경남 통영시,경상남도 통영시 사량면,34.8454375,128.2199468,관광지,
가지산도립공원(밀양),경남 밀양시,경상남도 밀양시 산내면,35.5842047,128.8808492,관광지,
미륵산(통영),경남 통영시,경상남도 통영시 봉수돌샘길 115,34.8219905,128.4155191,관광지,
창원의 집,경남 창원시,경상남도 창원시 의창구 사림로16번길 59,35.2444473,128.6813665,관광지,
3·15 아트센터,경남 창원시,경상남도 창원시 마산회원구 삼호로 135,35.2258781,128.5772021,관광지,
옥정호(물안개길),전북 임실군,전라북도 임실군 운암면,35.663567,127.1556106,관광지,
국립 회문산자연휴양림,전북 순창군,전라북도 순창군 구림면 안심길 249,35.4989182,127.1181029,관광지,
용담호,전북 진안군,전라북도 진안군 안천면 안용로 747,35.9451629,127.5285936,관광지,
부찌,전북 고창군,전라북도 고창군 고창읍 성산2길 15,35.4360558,126.6974299,관광지,
두동편백나무숲,전북 익산시,전라북도 익산시 성당면 두동길 15,36.1037307,126.9214085,관광지,
메이드호텔[한국관광 품질인증/Korea Quality],전북 남원시,전라북도 남원시 소리길 110,35.4054556,127.3886668,관광지,
무주 지전마을 옛 담장,전북 무주군,전라북도 무주군 설천면,36.0081479,127.7896811,관광지,
지리산 반야봉,전북 남원시,전라북도 남원시 산내면,35.4191955,127.6232065,관광지,
마이산 타포니지형,전북 진안군,전라북도 진안군 진안읍 마이산로 255,35.7663331,127.4151117,관광지,
우항리 공룡화석 자연사유적지,전남 해남군,전라남도 해남군 황산면 공룡박물관길 234,34.589965,126.4368019,관광지,
농업기술센터 자연생태학습장,전남 구례군,전라남도 구례군 구례읍 동산1길 32,35.1967797,127.4603848,관광지,
가마골생태공원,전남 담양군,전라남도 담양군 용면 용소길 261,35.4450376,127.0227788,관광지,
금당도,전남 완도군,전라남도 완도군 금당면 금당로 50-1,34.4299155,127.0713034,관광지,
가마골계곡,전남 담양군,전라남도 담양군 용면 용소길 261,35.4450376,127.0227788,관광지,
태평염생식물원,전남 신안군,전남 신안군 증도면 증동리,35.0063567,126.150116,관광지,
암태도,전남 신안군,전라남도 신안군 암태면 장단고길 7-63,34.8267592,126.1123451,관광지,
여수 낭도리 공룡발자국화석 산지,전남 여수시,전라남도 여수시 화정면,34.6209539,127.6394242,관광지,
금릉경포대,전남 강진군,전라남도 강진군 성전면 백운로 148-9,34.7461782,126.7086779,관광지,
안도해변,전남 여수시,전라남도 여수시 남면,34.5094653,127.766585,관광지,
바다풍경횟집,제주 제주시,제주특별자치도 제주시 서해안로 654,33.5110314,126.4802212,관광지,
바다잔치,제주 제주시,제주특별자치도 제주시 탑동로 79,33.5177224,126.5168965,관광지,
제주뚝배기,제주 서귀포시,제주특별자치도 서귀포시 성산읍 일출로 255,33.4611374,126.9330294,관광지,
제주오션팰리스호텔,제주 서귀포시,제주특별자치도 서귀포시 중앙로 14,33.2546252,126.5593313,관광지,
롯데호텔 제주,제주 서귀포시,제주특별자치도 서귀포시 중문관광로72번길 35,33.2485349,126.4103936,관광지,
지화자,서울 종로구,서울특별시 종로구 자하문로 125,37.5870598,126.9693777,관광지,
온마을,서울 종로구,서울특별시 종로구 삼청로 127,37.5866372,126.9815224,관광지,
전주식당,서울 종로구,서울특별시 종로구 수표로20길 16-17,37.5698568,126.9911251,관광지,
계림식당,서울 종로구,서울특별시 종로구 돈화문로4길 39,37.5701315,126.9944914,관광지,
오우가,서울 중구,서울특별시 중구 명동8가길 42,37.5616542,126.9873839,관광지,
한일장,서울 종로구,서울특별시 종로구 수표로 94,37.569511,126.9896729,관광지,
감미옥(구 대성옥),서울 종로구,서울특별시 종로구 종로 166-1,37.5703768,126.9961023,관광지,
금용문,서울 종로구,"서울특별시 종로구 새문안로5가길 7, 2층",37.5727405,126.9740251,관광지,
서문회관,서울 중구,서울특별시 중구 세종대로11길 47,37.561875,126.9733037,관광지,
연타발 삼성코엑스,서울 강남구,서울특별시 강남구 테헤란로87길 35,37.5099243,127.0577035,관광지,
브라운도트 민락점,부산 수영구,부산광역시 수영구 광안해변로278번길 42,35.1539709,129.1245349,관광지,
송정해수욕장,부산 해운대구,부산광역시 해운대구 송정해변로 62,35.1794693,129.1995796,관광지,
국립 달음산자연휴양림,부산 기장군,부산광역시 기장군 일광면 화용길 299-106,35.2915705,129.2046756,관광지,
동아대학교 석당박물관(부산),부산 서구,부산광역시 서구 구덕로 225,35.1042116,129.0191299,관광지,
부산 해운대도서관,부산 해운대구,부산광역시 해운대구 양운로 183,35.1779728,129.1688996,관광지,
부산현대미술관,부산 사하구,부산광역시 사하구 낙동남로 1191,35.1092764,128.9427503,관광지,
요산문학관,부산 금정구,부산광역시 금정구 팔송로 60-6,35.2722691,129.0858235,관광지,
부산시민회관,부산 동구,부산광역시 동구 자성로133번길 16,35.1388958,129.0652205,관광지,
북구문화빙상센터 공연장,부산 북구,부산광역시 북구 금곡대로46번길 50,35.2134491,129.0054681,관광지,
국립부산국악원,부산 부산진구,부산광역시 부산진구 국악로 2,35.1713738,129.0543865,관광지,
근대문화체험관 계산예가,대구 중구,대구광역시 중구 서성로 6-1,35.8672357,128.5878192,관광지,
대구시민안전테마파크,대구 동구,대구광역시 동구 팔공산로 1155,35.9891717,128.691943,관광지,
에코한방웰빙체험관,대구 중구,대구광역시 중구 남성로 24,35.8690398,128.5880628,관광지,
패션주얼리전문타운,대구 중구,대구광역시 중구 경상감영길 176,35.8717688,128.5966973,관광지,
수성아트피아,대구 수성구,대구광역시 수성구 무학로 180,35.8295426,128.628415,관광지,
대구광역시립중앙도서관,대구 중구,대구광역시 중구 공평로10길 25,35.8689974,128.6017305,관광지,
향촌문화관,대구 중구,대구광역시 중구 중앙대로 449,35.8733774,128.5941989,관광지,
대구예술발전소,대구 중구,대구광역시 중구 달성로22길 31-12,35.8755076,128.5845613,관광지,
용문사(대구),대구 달성군,대구광역시 달성군 화원읍 화원휴양림길 132,35.7689163,128.5389836,관광지,
읍내동 마애불상,대구 북구,대구광역시 북구 칠곡중앙대로129길 169-3,35.9637238,128.5434174,관광지,
을왕리해수욕장,인천 중구,인천광역시 중구 을왕로13번길 15,37.4450739,126.372986,관광지,
팔미도등대,인천 중구,인천광역시 중구 팔미로 15,37.3583358,126.5106153,관광지,
서포리해변,인천 옹진군,인천광역시 옹진군 덕적면 덕적남로587번길 15,37.222418,126.1141303,관광지,
카페힐로 서창,인천 남동구,"인천광역시 남동구 서창남로 69, 1층",37.4469893,126.7319416,관광지,
백령도 콩돌해변,인천 옹진군,인천광역시 옹진군 백령면,37.9728415,124.718271,관광지,
송도갈매기 송림,인천 서구,인천광역시 서구 백범로 872,37.4853697,126.6615432,관광지,
월미도,인천 중구,인천광역시 중구 월미문화로 36,37.471318,126.596287,관광지,
서울특별시교육청 정독도서관,서울 종로구,서울특별시 종로구 북촌로5길 48,37.5807856,126.9831611,문화시설,
춘원당한의약박물관,서울 종로구,서울특별시 종로구 돈화문로9길 27,37.5714629,126.9902306,문화시설,
동림매듭박물관,서울 종로구,서울특별시 종로구 북촌로12길 10,37.5817446,126.9856027,문화시설,
북촌문화센터,서울 종로구,서울특별시 종로구 계동길 37,37.5790313,126.9864082,문화시설,
환기미술관,서울 종로구,서울특별시 종로구 자하문로40길 63,37.594224,126.9662,문화시설,
목인박물관 목석원,서울 종로구,서울특별시 종로구 창의문로5길 46-1,37.5889231,126.9632151,문화시설,
도산안창호기념관,서울 강남구,서울특별시 강남구 도산대로45길 20,37.5239121,127.0355914,문화시설,
용산공예관,서울 용산구,서울특별시 용산구 이태원로 274,37.5389612,127.0020591,문화시설,
서대문자연사박물관,서울 서대문구,서울특별시 서대문구 연희로32길 51,37.5766913,126.9378364,문화시설,
매헌 윤봉길의사 기념관,서울 서초구,서울특별시 서초구 매헌로 99,37.4712172,127.0367358,문화시설,
부산 트릭아이뮤지엄,부산 중구,부산광역시 중구 대청로126번길 12,35.101702,129.0337655,문화시설,
복천박물관(부산),부산 동래구,부산광역시 동래구 복천로 63,35.2083599,129.0914505,문화시설,
부산문화회관,부산 남구,부산광역시 남구 유엔평화로76번길 1,35.1271736,129.0939167,문화시설,
유엔평화기념관,부산 남구,부산광역시 남구 홍곡로320번길 106,35.1238395,129.0923986,문화시설,
부산시립미술관,부산 해운대구,부산광역시 해운대구 APEC로 58,35.1650508,129.1347629,문화시설,
국립부산국악원,부산 부산진구,부산광역시 부산진구 국악로 2,35.1713738,129.0543865,문화시설,
북구문화빙상센터 공연장,부산 북구,부산광역시 북구 금곡대로46번길 50,35.2134491,129.0054681,문화시설,
부산시민회관,부산 동구,부산광역시 동구 자성로133번길 16,35.1388958,129.0652205,문화시설,
요산문학관,부산 금정구,부산광역시 금정구 팔송로 60-6,35.2722691,129.0858235,문화시설,
부산 해운대도서관,부산 해운대구,부산광역시 해운대구 양운로 183,35.1779728,129.1688996,문화시설,
대구예술발전소,대구 중구,대구광역시 중구 달성로22길 31-12,35.8755076,128.5845613,문화시설,
향촌문화관,대구 중구,대구광역시 중구 중앙대로 449,35.8733774,128.5941989,문화시설,
대구광역시립중앙도서관,대구 중구,대구광역시 중구 공평로10길 25,35.8689974,128.6017305,문화시설,
수성아트피아,대구 수성구,대구광역시 수성구 무학로 180,35.8295426,128.628415,문화시설,
패션주얼리전문타운,대구 중구,대구광역시 중구 경상감영길 176,35.8717688,128.5966973,문화시설,
에코한방웰빙체험관,대구 중구,대구광역시 중구 남성로 24,35.8690398,128.5880628,문화시설,
근대문화체험관 계산예가,대구 중구,대구광역시 중구 서성로 6-1,35.8672357,128.5878192,문화시설,
팔공문화원,대구 동구,대구광역시 동구 팔공로197길 25,35.9559567,128.6892,문화시설,
"아양아트센터(구, 동구문화체육회관)",대구 동구,대구광역시 동구 효동로2길 24,35.8797836,128.6519603,문화시설,
달성 한일우호관,대구 달성군,대구광역시 달성군 가창면 우록길 206,35.7226391,128.6465416,문화시설,
국립생물자원관,인천 서구,인천광역시 서구 환경로 42,37.5686643,126.6435975,문화시설,
인천 검단선사박물관,인천 서구,인천광역시 서구 고산후로121번길 7,37.594403,126.6986697,문화시설,
청라호수도서관,인천 서구,인천광역시 서구 크리스탈로 59,37.5521188,126.6441068,문화시설,
인천동구청소년수련관,인천 동구,인천광역시 동구 솔빛로 82,37.4760223,126.6425652,문화시설,
인천광역시 여성문화회관,인천 부평구,인천광역시 부평구 길주로 539,37.507813,126.7219616,문화시설,
송암미술관,인천 미추홀구,인천광역시 미추홀구 비류대로55번길 68,37.4342786,126.6420845,문화시설,
인천문화예술회관,인천 남동구,인천광역시 남동구 예술로 149,37.44764,126.7000184,문화시설,
인천수봉문화회관,인천 미추홀구,인천광역시 미추홀구 수봉안길 78,37.4611719,126.6621815,문화시설,
녹청자박물관,인천 서구,인천광역시 서구 도요지로 54,37.5581275,126.6564523,문화시설,
인천상륙작전기념관,인천 연수구,인천광역시 연수구 청량로 138,37.419443,126.6543566,문화시설,
광주문화예술회관,광주 북구,광주광역시 북구 북문대로 60,35.1777124,126.8817023,문화시설,
국립광주과학관,광주 북구,광주광역시 북구 첨단과기로 235,35.2296488,126.8500641,문화시설,
광주시립미술관,광주 북구,광주광역시 북구 하서로 52,35.1808412,126.8824016,문화시설,
광주 송정도서관,광주 광산구,광주광역시 광산구 송정공원로 8-13,35.1453164,126.7996039,문화시설,
광주광역시립산수도서관,광주 동구,광주광역시 동구 경양로 355,35.1543981,126.9284698,문화시설,
광주광역시립무등도서관,광주 북구,광주광역시 북구 면앙로 130,35.1765283,126.9253482,문화시설,
광주광역시립 사직도서관,광주 남구,광주광역시 남구 제중로 56,35.1395202,126.9139332,문화시설,
남도향토음식박물관·호남문화자료전시관,광주 북구,광주광역시 북구 설죽로 477,35.2018013,126.8986726,문화시설,
광주중앙도서관,광주 동구,광주광역시 동구 장동로 23-16,35.1485032,126.9253348,문화시설,
국립광주박물관,광주 북구,광주광역시 북구 하서로 110,35.1887107,126.8835323,문화시설,
유성문화원,대전 유성구,대전광역시 유성구 문화원로 46,36.3598081,127.340868,문화시설,
이응노 미술관,대전 서구,대전광역시 서구 둔산대로 157,36.368147,127.3819873,문화시설,
전통나래관,대전 동구,대전광역시 동구 철갑1길 15,36.3352969,127.4372982,문화시설,
대전 가수원도서관,대전 서구,대전광역시 서구 가수원로 91-11,36.3016338,127.3489369,문화시설,
평송청소년문화센터,대전 서구,대전광역시 서구 둔산대로 201,36.368147,127.3819873,문화시설,
대전 갈마도서관,대전 서구,대전광역시 서구 신갈마로127번길 138,36.3408346,127.3657483,문화시설,
대전시립박물관,대전 유성구,대전광역시 유성구 도안대로 398,36.3400392,127.3389136,문화시설,
대전한밭도서관,대전 중구,대전광역시 중구 서문로 10,36.3098158,127.4096227,문화시설,
대전시립미술관,대전 서구,대전광역시 서구 둔산대로 155,36.366783,127.385739,문화시설,
대전어린이회관,대전 유성구,대전광역시 유성구 월드컵대로 32,36.364793,127.3247552,문화시설,
울산박물관,울산 남구,울산광역시 남구 두왕로 277,35.5271604,129.3086618,문화시설,
가족문화센터,울산 남구,울산광역시 남구 대공원로 84,35.5318053,129.2908947,문화시설,
울주문화예술회관,울산 울주군,울산광역시 울주군 범서읍 천상중앙길 36,35.5644423,129.2320794,문화시설,
현대자동차 문화회관,울산 북구,울산광역시 북구 염포로 601,35.538148,129.3882355,문화시설,
현대예술관,울산 동구,울산광역시 동구 명덕로 10,35.5229511,129.4309727,문화시설,
울산북구문화예술회관,울산 북구,울산광역시 북구 산업로 1000,35.5814156,129.3609629,문화시설,
한마음회관,울산 동구,울산광역시 동구 바드래1길 30,35.5172206,129.4272227,문화시설,
울산암각화박물관,울산 울주군,울산광역시 울주군 두동면 반구대안길 254,35.6080023,129.1706288,문화시설,
울산남부도서관,울산 남구,울산광역시 남구 거마로13번길 6,35.535816,129.2951888,문화시설,
울산동부도서관,울산 동구,울산광역시 동구 봉수로 505,35.5282078,129.4250825,문화시설,
충청남도 산림박물관,세종 한솔동,세종특별자치시 금남면 산림박물관길 110,36.4374345,127.2330097,문화시설,
세종문화원,세종 한솔동,세종특별자치시 조치원읍 문화로 17,36.6032717,127.3006263,문화시설,
세종문화예술회관,세종 한솔동,세종특별자치시 조치원읍 문예회관길 22,36.599605,127.28719,문화시설,
세종시립민속박물관,세종 한솔동,세종특별자치시 전의면 금사길 75,36.6087055,127.1703317,문화시설,
국립조세박물관,세종 한솔동,세종특별자치시 국세청로 8-14,36.4851527,127.2603266,문화시설,
국립세종도서관,세종 한솔동,세종특별자치시 다솜3로 48,36.4987002,127.2683932,문화시설,
정부세종컨벤션센터,세종 한솔동,세종특별자치시 다솜3로 66,36.501101,127.269948,문화시설,
연기향토박물관,세종 한솔동,세종특별자치시 연서면 양대길 34-4,36.5955193,127.2078271,문화시설,
김해문화의전당,경남 김해시,경상남도 김해시 김해대로 2060,35.2437142,128.869519,문화시설,
고성탈박물관,경남 고성군,경상남도 고성군 고성읍 율대2길 23,34.9710536,128.3338406,문화시설,
고성공룡박물관,경남 고성군,경상남도 고성군 하이면 자란만로 618,34.9080985,128.1486801,문화시설,
하동야생차박물관,경남 하동군,경상남도 하동군 화개면 쌍계로 571-25,35.2277326,127.6426336,문화시설,
창원역사민속관,경남 창원시,경상남도 창원시 의창구 창이대로397번길 25,35.2451016,128.6810172,문화시설,
진해문화센터,경남 창원시,경상남도 창원시 진해구 진해대로 325,35.1279791,128.7449228,문화시설,
성산아트홀,경남 창원시,경상남도 창원시 의창구 중앙대로 181,35.229364,128.6831343,문화시설,
3·15 아트센터,경남 창원시,경상남도 창원시 마산회원구 삼호로 135,35.2258781,128.5772021,문화시설,
창원의 집,경남 창원시,경상남도 창원시 의창구 사림로16번길 59,35.2444473,128.6813665,문화시설,
한국궁중꽃박물관,경남 양산시,경상남도 양산시 매곡외산로 232,35.3668798,129.1760391,문화시설,
고창고인돌박물관,전북 고창군,전라북도 고창군 고창읍 고인돌공원길 74,35.4417204,126.6514473,문화시설,
남원시립김병종미술관,전북 남원시,전라북도 남원시 함파우길 65-14,35.3952332,127.3932112,문화시설,
군산근대역사박물관,전북 군산시,전라북도 군산시 해망로 240,35.9907575,126.7125781,문화시설,
채만식 문학관,전북 군산시,전라북도 군산시 강변로 449,36.0085755,126.7579253,문화시설,
부안청자박물관,전북 부안군,전라북도 부안군 보안면 청자로 1493,35.6116388,126.6518847,문화시설,
마동도서관,전북 익산시,전라북도 익산시 선화1로 99,35.9404093,126.9690213,문화시설,
무주곤충박물관,전북 무주군,전라북도 무주군 설천면 무설로 1324,36.0111137,127.758702,문화시설,
국립익산박물관,전북 익산시,전라북도 익산시 금마면 미륵사지로 362,36.0108304,127.0282197,문화시설,
전주역사박물관,전북 전주시,전라북도 전주시 완산구 쑥고개로 259,35.8009943,127.0933305,문화시설,
농업과학관,전북 전주시,전라북도 전주시 완산구 농생명로 300,35.8311617,127.0562522,문화시설,
영광노을전시관,전남 영광군,전라남도 영광군 백수읍 해안로 957,35.3348581,126.403065,문화시설,
순천만 자연생태관,전남 순천시,전라남도 순천시 순천만길 513-25,34.885971,127.5090298,문화시설,
여수시청소년수련관,전남 여수시,전라남도 여수시 학동서4길 58-26,34.7630441,127.658722,문화시설,
영광군립도서관,전남 영광군,전라남도 영광군 영광읍 중앙로 228-16,35.2792915,126.5155049,문화시설,
정남진천문과학관,전남 장흥군,전라남도 장흥군 장흥읍 평화우산길 180-608,34.6584351,126.9261356,문화시설,
태백산맥문학관,전남 보성군,전라남도 보성군 벌교읍 홍암로 89-19,34.8492033,127.3522185,문화시설,
여수시민회관,전남 여수시,전라남도 여수시 좌수영로 69,34.769183,127.6960284,문화시설,
국립남도국악원,전남 진도군,전라남도 진도군 임회면 진도대로 3818,34.3849048,126.2247902,문화시설,
함평군립미술관,전남 함평군,전라남도 함평군 함평읍 곤재로 27,35.0565469,126.5226337,문화시설,
강진군도서관,전남 강진군,전라남도 강진군 강진읍 남문길 10,34.640635,126.7695711,문화시설,
제주교육박물관,제주 제주시,제주특별자치도 제주시 오복4길 25,33.494451,126.5382743,문화시설,
제주특별자치도립기당미술관,제주 서귀포시,제주특별자치도 서귀포시 남성중로153번길 15,33.2446568,126.5517975,문화시설,
제주 세계자연유산센터,제주 제주시,제주특별자치도 제주시 조천읍 선교로 569-36,33.4569601,126.7143895,문화시설,
제주 추사관,제주 서귀포시,제주특별자치도 서귀포시 대정읍 추사로 44,33.249837,126.2786308,문화시설,
국립제주박물관,제주 제주시,제주특별자치도 제주시 일주동로 17,33.5139974,126.5489702,문화시설,
서귀포천문과학문화관,제주 서귀포시,제주특별자치도 서귀포시 1100로 506-1,33.2876905,126.4619885,문화시설,
김영갑 갤러리(두모악),제주 서귀포시,제주특별자치도 서귀포시 성산읍 삼달로 137,33.3720645,126.8541795,문화시설,
제주 생태문화전시관 더플래닛,제주 서귀포시,제주특별자치도 서귀포시 천제연로 70,33.2551953,126.4130383,문화시설,
오설록 티뮤지엄,제주 서귀포시,제주특별자치도 서귀포시 안덕면 신화역사로 15,33.3058932,126.289534,문화시설,
삼매봉도서관,제주 서귀포시,제주특별자치도 서귀포시 남성중로153번길 15,33.2446568,126.5517975,문화시설,
수원시립아이파크미술관,경기 수원시,경기도 수원시 팔달구 정조로 833,37.2824692,127.0162129,문화시설,
국립수목원 산림박물관,경기 포천시,경기도 포천시 소흘읍 광릉수목원로 415,37.7521287,127.1634605,문화시설,
경기과천교육도서관,경기 과천시,경기도 과천시 도서관길 36,37.432262,126.9965747,문화시설,
성남문화원,경기 성남시,경기도 성남시 수정구 산성대로215번길 7,37.4389632,127.1407748,문화시설,
국립여성사전시관,경기 고양시,경기도 고양시 덕양구 화중로104번길 50,37.6357981,126.8339879,문화시설,
광명업사이클아트센터,경기 광명시,경기도 광명시 가학로85번길 142,37.4251755,126.8644482,문화시설,
박물관 얼굴,경기 광주시,경기도 광주시 남종면 분원길 3-6,37.4938155,127.3019996,문화시설,
부천시립북부도서관,경기 부천시,경기도 부천시 삼작로301번길 5,37.5205215,126.7943259,문화시설,
군포시문화예술회관,경기 군포시,경기도 군포시 고산로 599,37.3661217,126.9273134,문화시설,
부천시립꿈빛도서관,경기 부천시,경기도 부천시 신흥로275번길 19,37.5080334,126.7736884,문화시설,
동해문화원,강원 동해시,강원도 동해시 천곡2길 8,37.5244942,129.1124871,문화시설,
영월곤충박물관,강원 영월군,강원도 영월군 영월읍 동강로 716,37.2381285,128.5150115,문화시설,
태백시 문화예술회관,강원 태백시,강원도 태백시 고원로 203,37.171907,128.9880632,문화시설,
태백 고생대자연사박물관,강원 태백시,강원도 태백시 태백로 2249,37.0949058,129.039566,문화시설,
축제극장 몸짓,강원 춘천시,강원도 춘천시 춘천로 112,37.8734185,127.7278377,문화시설,
춘천미술관,강원 춘천시,강원도 춘천시 서부대성로 71,37.8824701,127.731333,문화시설,
동강사진박물관,강원 영월군,강원도 영월군 영월읍 영월로 1909-10,37.1819915,128.4614936,문화시설,
정선아리랑센터(아리랑박물관),강원 정선군,강원도 정선군 정선읍 애산로 51,37.3764692,128.671729,문화시설,
춘천문화예술회관,강원 춘천시,강원도 춘천시 효자상길5번길 13,37.8724203,127.7294724,문화시설,
단종역사관,강원 영월군,강원도 영월군 영월읍 단종로 190,37.1957831,128.4543019,문화시설,
청주시한국공예관,충북 청주시,충청북도 청주시 청원구 상당로 314,36.6554335,127.4901913,문화시설,
옥천문화원,충북 옥천군,충청북도 옥천군 옥천읍 관성로 35,36.3019125,127.5731325,문화시설,
철박물관,충북 음성군,충청북도 음성군 감곡면 영산로 360,37.0906236,127.6500883,문화시설,
감우재전승기념관,충북 음성군,충청북도 음성군 음성읍 생음대로 594,36.9511967,127.6468141,문화시설,
정지용 문학관,충북 옥천군,충청북도 옥천군 옥천읍 향수길 56,36.3149497,127.5817065,문화시설,
한독의약박물관,충북 음성군,충청북도 음성군 대소면 대풍산단로 78,36.9711275,127.464668,문화시설,
증평민속체험박물관,충북 증평군,충청북도 증평군 증평읍 둔덕길 89,36.7639436,127.5954976,문화시설,
진천 종박물관,충북 진천군,충청북도 진천군 진천읍 백곡로 1504-12,36.8698358,127.4138045,문화시설,
제천문화원,충북 제천시,충청북도 제천시 의림대로 125,37.13922,128.2104748,문화시설,
청주시립대청호미술관,충북 청주시,충청북도 청주시 상당구 문의면 대청호반로 721,36.5070855,127.4937073,문화시설,
고남패총박물관,충남 태안군,충청남도 태안군 고남면 안면대로 4270-6,36.4202967,126.4100825,문화시설,
백제문화체험박물관,충남 청양군,충청남도 청양군 대치면 장곡길 43-24,36.4043688,126.8464977,문화시설,
천안시 시민문화여성회관,충남 천안시,충청남도 천안시 서북구 성정중4길 29,36.8273354,127.136305,문화시설,
국립태안해양유물전시관,충남 태안군,충청남도 태안군 근흥면 신진대교길 94-33,36.6762961,126.1444776,문화시설,
국립부여박물관,충남 부여군,충청남도 부여군 부여읍 금성로 5,36.2768894,126.91891,문화시설,
안동문화예술의전당,경북 안동시,경상북도 안동시 축제장길 66,36.5595259,128.7256906,문화시설,
테디베어뮤지엄 경주,경북 경주시,경상북도 경주시 보문로 280-34,35.8517248,129.2738976,문화시설,
구미문화원,경북 구미시,경상북도 구미시 선산읍 선산중앙로 83-1,36.2429772,128.3001783,문화시설,
국립경주박물관,경북 경주시,경상북도 경주시 일정로 186,35.8292319,129.2277439,문화시설,
경상북도독립운동기념관,경북 안동시,경상북도 안동시 임하면 독립기념관길 2,36.5331561,128.8579702,문화시설,
삼성현 역사문화관,경북 경산시,경상북도 경산시 남산면 상대로 883-30,35.8016667,128.7966667,문화시설,
경주예술의전당,경북 경주시,경상북도 경주시 알천북로 1,35.8621624,129.2063979,문화시설,
인삼박물관,경북 영주시,경상북도 영주시 풍기읍 죽령로 1378,36.8859194,128.4797813,문화시설,
전통문화콘텐츠박물관,경북 안동시,경상북도 안동시 서동문로 203,36.5662355,128.7341994,문화시설,
칠곡호국평화기념관,경북 칠곡군,경상북도 칠곡군 석적읍 강변대로 1580,36.0186984,128.4033421,문화시설,
록시땅,서울 강남구,서울특별시 강남구 압구정로 162,37.5262971,127.0274535,쇼핑몰,
삼성모바일스토어 코엑스점,서울 강남구,서울특별시 강남구 영동대로 513,37.5101935,127.0585824,쇼핑몰,
현대백화점 (압구정본점),서울 강남구,서울특별시 강남구 압구정로 165,37.5273268,127.0274265,쇼핑몰,
서울풍물시장,서울 동대문구,서울특별시 동대문구 천호대로4길 21,37.5730037,127.0256147,쇼핑몰,
경동시장,서울 동대문구,서울특별시 동대문구 왕산로 147,37.5788575,127.0396563,쇼핑몰,
서울 약령시장,서울 동대문구,서울특별시 동대문구 약령중앙로 10,37.5790102,127.0370606,쇼핑몰,
노량진수산물도매시장,서울 동작구,서울특별시 동작구 노들로 674,37.5144828,126.9370209,쇼핑몰,
KT&G 상상마당 디자인스퀘어,서울 마포구,서울특별시 마포구 어울마당로 65,37.5509155,126.9210433,쇼핑몰,
라온트래블스토리지,서울 마포구,서울특별시 마포구 양화로 지하 188,37.5581051,126.9260261,쇼핑몰,
한샘가죽공방,서울 마포구,서울특별시 마포구 어울마당로 113,37.5549293,126.9228914,쇼핑몰,
토니모리 (이대점),서울 서대문구,서울특별시 서대문구 이화여대길 24,37.5578623,126.9459631,쇼핑몰,
정관장 (이대점),서울 서대문구,서울특별시 서대문구 신촌로 173,37.5569329,126.9452066,쇼핑몰,
추억을굽는가게 (신촌점),서울 서대문구,서울특별시 서대문구 신촌로11길 7,37.5570445,126.9327585,쇼핑몰,
양재 하이브랜드,서울 서초구,서울특별시 서초구 매헌로 16,37.4665323,127.0355485,쇼핑몰,
고속터미널 의류도매상가,서울 서초구,서울특별시 서초구 신반포로 194,37.5054942,127.006719,쇼핑몰,
센트럴시티,서울 서초구,서울특별시 서초구 신반포로 176,37.5041299,127.0030692,쇼핑몰,
언더스탠드에비뉴,서울 성동구,서울특별시 성동구 왕십리로 63,37.5435176,127.0436819,쇼핑몰,
엔터식스 왕십리역점,서울 성동구,서울특별시 성동구 왕십리광장로 17,37.5621482,127.0379421,쇼핑몰,
마장 축산물시장,서울 성동구,서울특별시 성동구 마장로31길 40,37.5697882,127.0384008,쇼핑몰,
롯데월드 쇼핑몰,서울 송파구,서울특별시 송파구 올림픽로 240,37.5112348,127.0980274,쇼핑몰,
핫트랙스 (잠실점),서울 송파구,서울특별시 송파구 올림픽로 269,37.5143367,127.1005715,쇼핑몰,
지오 송지오(ZIO SONGZIO) 문정점,서울 송파구,서울특별시 송파구 동남로4길 22,37.4881898,127.1245534,쇼핑몰,
목3동시장(목동깨비시장),서울 양천구,서울특별시 양천구 목동중앙북로 29,37.5482306,126.8668198,쇼핑몰,
신영시장,서울 양천구,서울특별시 양천구 월정로 161-5,37.5329774,126.8360086,쇼핑몰,
경창시장,서울 양천구,서울특별시 양천구 오목로9길 31,37.5248912,126.8421121,쇼핑몰,
공방시와저,서울 강동구,서울특별시 강동구 성안로 101,37.5325341,127.132829,쇼핑몰,
대림중앙시장,서울 영등포구,서울특별시 영등포구 디지털로37나길 21,37.4915685,126.8999305,쇼핑몰,
올리브영 (타임스퀘어신세계점),서울 영등포구,서울특별시 영등포구 영중로 15,37.517007,126.9041419,쇼핑몰,
빈폴 (타임스퀘어점),서울 영등포구,서울특별시 영등포구 영중로 15,37.517007,126.9041419,쇼핑몰,
해밀톤 쇼핑센터,서울 용산구,서울특별시 용산구 이태원로 179,37.5347302,126.9941284,쇼핑몰,
꼼데가르송 (Comme des Garcons),서울 용산구,서울특별시 용산구 이태원로 261,37.5381905,127.0012807,쇼핑몰,
이태원 쇼핑거리,서울 용산구,서울특별시 용산구 이태원동,37.5400456,126.9921017,쇼핑몰,
광장시장,서울 종로구,서울특별시 종로구 창경궁로 88,37.5700398,126.9996036,쇼핑몰,
핫트랙스 (광화문점),서울 종로구,서울특별시 종로구 종로 1,37.5746718,126.9789714,쇼핑몰,
동화면세점,서울 종로구,서울특별시 종로구 세종대로 149,37.5695312,126.976126,쇼핑몰,
롯데면세점 (본점),서울 중구,서울특별시 중구 을지로 30,37.5649903,126.981369,쇼핑몰,
퇴계로 오토바이 상가,서울 중구,서울특별시 중구 충무로4가,37.5622705,126.996153,쇼핑몰,
삼익패션타운,서울 중구,서울특별시 중구 남대문시장8길 7,37.5603965,126.9789324,쇼핑몰,
스토리 (Stori),서울 강서구,서울특별시 강서구 허준로 217,37.5609315,126.862881,쇼핑몰,
롯데몰 김포공항,서울 강서구,서울특별시 강서구 하늘길 77,37.5667733,126.8025118,쇼핑몰,
테크노마트 강변점,서울 광진구,서울특별시 광진구 광나루로56길 85,37.5349372,127.0957088,쇼핑몰,
커먼그라운드,서울 광진구,서울특별시 광진구 아차산로 200,37.5408693,127.0660137,쇼핑몰,
프리스비 (Frisbee) 건대점,서울 광진구,서울특별시 광진구 능동로 92,37.5387765,127.0710831,쇼핑몰,
구로 중앙유통단지,서울 구로구,서울특별시 구로구 경인로53길 15,37.5010068,126.8746679,쇼핑몰,
AK플라자백화점 (구로점),서울 구로구,서울특별시 구로구 구로중앙로 152,37.5012056,126.8827953,쇼핑몰,
남구로시장,서울 구로구,서울특별시 구로구 구로동로26길 54,37.4898684,126.8872465,쇼핑몰,
W몰(W-MALL),서울 금천구,서울특별시 금천구 디지털로 188,37.4773244,126.8877548,쇼핑몰,
마리오아울렛,서울 금천구,서울특별시 금천구 디지털로9길 23,37.4786713,126.8864968,쇼핑몰,
한국민속식품 (부산),부산 강서구,부산광역시 강서구 공항로811번길 71-1,35.1807046,128.9539643,쇼핑몰,
부산 국제수산물도매시장,부산 서구,부산광역시 서구 원양로 35 국제수산물도매시장,35.0597759,129.0104975,쇼핑몰,
부산공동어시장,부산 서구,부산광역시 서구 충무대로 202,35.0886268,129.0251869,쇼핑몰,
오랜지바다,부산 수영구,부산광역시 수영구 광안해변로 245-1,35.154938,129.1207541,쇼핑몰,
민락어민활어직판장,부산 수영구,부산광역시 수영구 광안해변로312번길 60,35.1542201,129.1278847,쇼핑몰,
남천 해변시장,부산 수영구,부산광역시 수영구 광안해변로15번길 77,35.1391281,129.1090572,쇼핑몰,
연일시장,부산 연제구,부산광역시 연제구 고분로 24,35.1854436,129.0848858,쇼핑몰,
거제시장,부산 연제구,부산광역시 연제구 거제시장로14번길 28,35.1817095,129.0728164,쇼핑몰,
영도봉래시장 / 봉래시장,부산 영도구,부산광역시 영도구 태종로113번길 39,35.092765,129.0439013,쇼핑몰,
남항시장,부산 영도구,부산광역시 영도구 절영로49번길 73-5,35.0889092,129.0422796,쇼핑몰,
(주)한국다원호간보 부산지사 [한국관광 품질인증/Korea Quality],부산 중구,부산광역시 중구 대청로155번길 6,35.103519,129.037238,쇼핑몰,
광복 지하도상가,부산 중구,부산광역시 중구 중앙대로29번길 8,35.1002181,129.0356529,쇼핑몰,
남포동 지하도상가,부산 중구,부산광역시 중구 구덕로 지하 44,35.097867,129.034638,쇼핑몰,
신세계면세점 (부산점),부산 해운대구,부산광역시 해운대구 센텀4로 15,35.1699728,129.1282757,쇼핑몰,
해운대 로데오거리,부산 해운대구,부산광역시 해운대구 좌동순환로 473,35.1636989,129.1694329,쇼핑몰,
부산 해운대시장,부산 해운대구,부산광역시 해운대구 구남로41번길 22-1,35.1614066,129.1623293,쇼핑몰,
구서 오시게시장,부산 금정구,부산광역시 금정구 구서로 12,35.2473584,129.0897886,쇼핑몰,
"송정시장 (5, 10일)",부산 기장군,부산광역시 기장군 철마면 두송길 7-31,35.3047926,129.1115718,쇼핑몰,
롯데프리미엄아울렛 동부산점,부산 기장군,부산광역시 기장군 기장읍 기장해안로 147,35.2188193,129.2313695,쇼핑몰,
부산 기장시장,부산 기장군,부산광역시 기장군 기장읍 읍내로104번길 16,35.2435205,129.2150933,쇼핑몰,
환공어묵 부산역점,부산 동구,부산광역시 동구 중앙대로 206,35.1170576,129.0436878,쇼핑몰,
부산 진시장,부산 동구,부산광역시 동구 진시장로 24,35.1364215,129.0587319,쇼핑몰,
유한회사스노우에이치 [한국관광 품질인증/Korea Quality],부산 동구,부산광역시 동구 조방로 32,35.1397049,129.0620697,쇼핑몰,
동래시장,부산 동래구,부산광역시 동래구 동래시장길 14,35.2038096,129.0859492,쇼핑몰,
핫트랙스 (부산점),부산 부산진구,부산광역시 부산진구 중앙대로 658,35.151552,129.059695,쇼핑몰,
동보프라자,부산 부산진구,부산광역시 부산진구 중앙대로 704,35.1555497,129.0595811,쇼핑몰,
서면 지하도상가,부산 부산진구,부산광역시 부산진구 중앙대로 737,35.1587856,129.0593892,쇼핑몰,
구포 축산물도매시장,부산 북구,부산광역시 북구 사상로583번길 20,35.1963451,128.9895204,쇼핑몰,
"구포장 / 구포시장 (3,8일)",부산 북구,부산광역시 북구 구포시장1길 17,35.2090124,129.0043898,쇼핑몰,
애플아울렛,부산 사상구,부산광역시 사상구 사상로 201,35.1630791,128.9810089,쇼핑몰,
부산 르네시떼,부산 사상구,부산광역시 사상구 광장로 7,35.1643625,128.9780222,쇼핑몰,
부산 엄궁농산물도매시장,부산 사상구,부산광역시 사상구 농산물시장로9번길 11,35.1282465,128.9642692,쇼핑몰,
대구 봉덕시장,대구 남구,대구광역시 남구 봉덕로 115,35.8450317,128.6032686,쇼핑몰,
관문시장,대구 남구,대구광역시 남구 대명서7길 24-3,35.8356279,128.5580035,쇼핑몰,
대구 안지랑시장,대구 남구,대구광역시 남구 대명로36길 19,35.8412466,128.5681113,쇼핑몰,
"현풍장 (5, 10일)",대구 달성군,대구광역시 달성군 현풍면 비슬로130길 53-1,35.6943583,128.4423614,쇼핑몰,
대구 평화시장,대구 동구,대구광역시 동구 아양로9길 10,35.8829051,128.6193801,쇼핑몰,
대구국제공항 면세점,대구 동구,대구광역시 동구 공항로 221,35.8994194,128.638395,쇼핑몰,
대림목공예,대구 동구,대구광역시 동구 공항로33길 21,35.9029246,128.6331256,쇼핑몰,
대구 칠성시장,대구 북구,대구광역시 북구 칠성시장로 28,35.8768422,128.6044687,쇼핑몰,
대구종합유통단지관리공단,대구 북구,대구광역시 북구 유통단지로13길 9,35.9082051,128.6091298,쇼핑몰,
퀸스로드,대구 서구,대구광역시 서구 평리로35길 18-17,35.8617229,128.545071,쇼핑몰,
원대가구 명물거리,대구 서구,대구광역시 서구 원대동3가,35.8853304,128.5756203,쇼핑몰,
그랜드면세점 (대구시내점),대구 수성구,대구광역시 수성구 동대구로 305,35.8577321,128.6251586,쇼핑몰,
천미사 (상감입사장),대구 수성구,대구광역시 수성구 들안로 108,35.8395578,128.6171557,쇼핑몰,
핫트랙스 (대구점),대구 중구,대구광역시 중구 국채보상로 586,35.870591,128.5948392,쇼핑몰,
동아아울렛 (본점),대구 중구,대구광역시 중구 경상감영길 171,35.8725466,128.5968936,쇼핑몰,
대구 서문시장 & 서문시장 야시장,대구 중구,대구광역시 중구 큰장로26길 45,35.8688986,128.580781,쇼핑몰,
강화 풍물시장,인천 강화군,인천광역시 강화군 강화읍 중앙로 17-9,37.7422908,126.4921831,쇼핑몰,
유림상회/ 소금빛서점,인천 강화군,인천광역시 강화군 강화읍 남문안길 7,37.7455209,126.4848185,쇼핑몰,
교동도 대룡시장,인천 강화군,인천광역시 강화군 교동면 교동남로 35,37.7821086,126.2795601,쇼핑몰,
광주문화관광상품전시장 광주아트샵,광주 동구,광주광역시 동구 예술길 18,35.150165,126.9181981,쇼핑몰,
남광주시장(남광주밤기차야시장),광주 동구,광주광역시 동구 양림로 117,35.1400127,126.920729,쇼핑몰,
광주 대인시장 (대인예술시장),광주 동구,광주광역시 동구 제봉로194번길 7-1,35.154085,126.9167809,쇼핑몰,
인당국악사,광주 동구,광주광역시 동구 제봉로 75,35.1452754,126.9215912,쇼핑몰,
광주 양동시장,광주 서구,광주광역시 서구 천변좌로 238,35.1538613,126.9021342,쇼핑몰,
1913송정역시장,광주 광산구,광주광역시 광산구 송정로16번길 38,35.1352664,126.7917513,쇼핑몰,
금남지하도상가,광주 동구,광주광역시 동구 서석로 지하 56,35.1463993,126.9142028,쇼핑몰,
예술개미장터,광주 동구,광주광역시 동구 예술길 24,35.149762,126.9186029,쇼핑몰,
"말바우장 / 말바우시장 (2, 4, 7, 9일)",광주 북구,광주광역시 북구 동문대로85번길 62,35.172871,126.9203366,쇼핑몰,
롯데아울렛 광주월드컵점,광주 서구,광주광역시 서구 금화로 240,35.1329733,126.8755729,쇼핑몰,
은행동 으능정이 문화의거리,대전 중구,대전광역시 중구 중앙로 170,36.3293242,127.428347,쇼핑몰,
대전 중앙시장,대전 동구,대전광역시 동구 대전로 783,36.3295329,127.4331895,쇼핑몰,
대전 태평시장,대전 중구,대전광역시 중구 수침로55번길 56,36.3259193,127.3977008,쇼핑몰,
패션월드,대전 서구,대전광역시 서구 월평새뜸로 5,36.3518671,127.3527237,쇼핑몰,
둔산전자타운,대전 서구,대전광역시 서구 도산로403번길 21,36.3400951,127.3938042,쇼핑몰,
대전 중리전통시장,대전 대덕구,대전광역시 대덕구 중리북로37번길 26,36.3653168,127.4258006,쇼핑몰,
갤러리아 백화점 (타임월드점),대전 서구,대전광역시 서구 대덕대로 211,36.352308,127.3785493,쇼핑몰,
"유성장 (4, 9일)",대전 유성구,대전광역시 유성구 유성대로730번길 24,36.3577193,127.333944,쇼핑몰,
"신탄진장 (3, 8일)",대전 대덕구,대전광역시 대덕구 석봉로37번길 47,36.4495344,127.4259447,쇼핑몰,
역전시장,대전 동구,대전광역시 동구 역전시장길 34,36.3300606,127.4338596,쇼핑몰,
신정 평화시장,울산 남구,울산광역시 남구 봉월로67번길 17,35.538337,129.3035526,쇼핑몰,
울산 농수산물도매시장,울산 남구,울산광역시 남구 삼산로 324,35.5386218,129.3427374,쇼핑몰,
울산 중앙시장,울산 중구,울산광역시 중구 번영로 329,35.5545384,129.3234524,쇼핑몰,
성남프라자,울산 중구,울산광역시 중구 중앙3길 6,35.5545103,129.3175359,쇼핑몰,
울산 진산면세점,울산 중구,울산광역시 중구 번영로 363,35.5574807,129.3260321,쇼핑몰,
"호계장 / 호계공설시장 (1,6일)",울산 북구,울산광역시 북구 호계3길 17-11,35.6236933,129.3557667,쇼핑몰,
"언양장 / 언양알프스시장 (2, 7일)",울산 울주군,울산광역시 울주군 언양읍 장터1길 22,35.5634831,129.1259342,쇼핑몰,
방어진 활어센터,울산 동구,울산광역시 동구 중진2길 5,35.483374,129.424447,쇼핑몰,
남목시장,울산 동구,울산광역시 동구 남목17길 9,35.5427156,129.4273869,쇼핑몰,
울산 산업공구월드,울산 남구,울산광역시 남구 갈밭로 24,35.5357884,129.3428744,쇼핑몰,
"세종전통시장 (4, 9일)",세종 한솔동,세종특별자치시 조치원읍 조치원8길 42,36.6042964,127.2985208,쇼핑몰,
동쪽바다중앙시장,강원 동해시,강원도 동해시 중앙시장길 12,37.5510523,129.1085439,쇼핑몰,
아남프라자,강원 속초시,강원도 속초시 중앙로5번길 8,38.2093541,128.5884506,쇼핑몰,
"삼척 중앙시장 (2, 7일)",강원 삼척시,강원도 삼척시 진주로 12-21,37.4420761,129.16466,쇼핑몰,
"주천시장 (1, 6일)",강원 영월군,강원도 영월군 주천면 주천시장길 47-5,37.2710818,128.266413,쇼핑몰,
사직번개시장 (삼척 번개시장),강원 삼척시,강원도 삼척시 중앙로 10,37.4306519,129.1785512,쇼핑몰,
원주 단구시장,강원 원주시,강원도 원주시 송림길 48-13,37.331352,127.9525449,쇼핑몰,
강릉 서부시장,강원 강릉시,강원도 강릉시 임영로155번길 6,37.7550085,128.8908612,쇼핑몰,
원주 남부시장,강원 원주시,강원도 원주시 치악로 1803,37.343087,127.9543659,쇼핑몰,
원주 농산물도매시장,강원 원주시,강원도 원주시 서원대로 33,37.3544809,127.9235799,쇼핑몰,
"춘천 풍물시장 / 풍물장 (2, 7일)",강원 춘천시,강원도 춘천시 영서로 2352-20,37.8679399,127.7169988,쇼핑몰,
"광혜원장 (3, 8일)",충북 진천군,충청북도 진천군 광혜원면 장기1안길 16,36.9889267,127.4453662,쇼핑몰,
복드림 도깨비방망이,충북 제천시,충청북도 제천시 백운면 금봉로 142,37.1508881,128.0439019,쇼핑몰,
"용산장 (5, 10일)",충북 영동군,충청북도 영동군 용산면 용산로 338,36.2606521,127.8289107,쇼핑몰,
"영동장 (4, 9일)",충북 영동군,충청북도 영동군 영동읍 영동시장2길 10-1,36.1751419,127.7756463,쇼핑몰,
"옥산장 (3, 8일)",충북 청주시,충북 청주시 흥덕구 옥산면 오산리,36.6608554,127.3718348,쇼핑몰,
도예공방 필,충북 충주시,충청북도 충주시 연원5길 26,36.9835726,127.931255,쇼핑몰,
"진천장 (5, 10일)",충북 진천군,충청북도 진천군 진천읍 남산10길 27,36.8569511,127.4475257,쇼핑몰,
삼화대장간,충북 충주시,충청북도 충주시 충인1길 12,36.9750071,127.9308412,쇼핑몰,
"단양장 / 단양구경시장 (1, 6일)",충북 단양군,충청북도 단양군 단양읍 도전5길 31,36.982472,128.3698933,쇼핑몰,
"충주 민속5일장 / 풍물시장 (5, 10일)",충북 충주시,충청북도 충주시 충인1길 22,36.9755413,127.9295404,쇼핑몰,
전통예산옹기,충남 예산군,충청남도 예산군 오가면 오촌중앙길 106,36.7157941,126.8027337,쇼핑몰,
온양도자기,충남 아산시,충청남도 아산시 신창면 서부남로 559,36.7924164,126.9189357,쇼핑몰,
"서천장 / 서천 수산물특화시장 (2, 7일)",충남 서천군,충청남도 서천군 서천읍 충절로 42,36.0750035,126.6870115,쇼핑몰,
서산동부시장,충남 서산시,충청남도 서산시 시장3길 5-6,36.7823989,126.4553428,쇼핑몰,
부여 롯데아울렛,충남 부여군,충청남도 부여군 규암면 백제문로 387,36.2919324,126.8979047,쇼핑몰,
"성환장 (1, 6일) / 성환이화시장",충남 천안시,충청남도 천안시 서북구 성환읍 성환시장길 12,36.9184016,127.1300739,쇼핑몰,
"부여장 (5, 10일) / 백마강달밤야시장",충남 부여군,충청남도 부여군 부여읍 성왕로173번길 12,36.281838,126.9070128,쇼핑몰,
태안 서부시장,충남 태안군,충청남도 태안군 태안읍 시장1길 34,36.7532116,126.2964229,쇼핑몰,
광천 토굴새우젓시장,충남 홍성군,충청남도 홍성군 광천읍 광천로299번길 36,36.5008945,126.6243746,쇼핑몰,
농부마켓 & 농부밥상,충남 청양군,충청남도 청양군 대치면 칠갑산로 704-18,36.4384552,126.8500097,쇼핑몰,
영천목탁공예사,경북 영천시,경상북도 영천시 언하동 167-1,35.9876407,128.9694321,쇼핑몰,
영남요,경북 문경시,경상북도 문경시 문경읍 새재로 579,36.756555,128.0871107,쇼핑몰,
신라요,경북 경주시,경상북도 경주시 하동공예촌길 45,35.8060713,129.3116774,쇼핑몰,
"남원장 / 남원공설시장 (4, 9일)",전북 남원시,전라북도 남원시 의총로 51,35.4048124,127.3753412,쇼핑몰,
온고을공예방,전북 전주시,전라북도 전주시 완산구 향교길 51-9,35.8120164,127.1525196,쇼핑몰,
익산 주얼팰리스,전북 익산시,전라북도 익산시 왕궁면 호반로 8,35.9903918,127.1014677,쇼핑몰,
남원 목운공예사,전북 남원시,전라북도 남원시 요천로 1230-9,35.4220847,127.3989478,쇼핑몰,
신영시장,전북 군산시,전라북도 군산시 동신영길 36,35.985657,126.7201283,쇼핑몰,
"고창장 (3, 8일)",전북 고창군,전라북도 고창군 고창읍 동산5길 24,35.432389,126.7106798,쇼핑몰,
곰소젓갈단지 (구시장),전북 부안군,전라북도 부안군 진서면 곰소항길 22-11,35.5871768,126.603674,쇼핑몰,
"오수상설시장 / 오수5일장 (5, 10일)",전북 임실군,전라북도 임실군 오수면 오수로 159,35.5382584,127.3269784,쇼핑몰,
"무주반딧불시장(무주반딧불장터) (1, 6일)",전북 무주군,전라북도 무주군 무주읍 장터로 2,36.0045908,127.6540485,쇼핑몰,
전주 남부시장,전북 전주시,전라북도 전주시 완산구 풍남문2길 63,35.8124081,127.1465988,쇼핑몰,
충주산방,전남 나주시,전라남도 나주시 공산면 금강로 253,34.9619347,126.590557,쇼핑몰,
나주목물 (나주반장 김춘식),전남 나주시,전라남도 나주시 영산로 5116-12,35.0241516,126.6938223,쇼핑몰,
목포 신중앙시장,전남 목포시,전라남도 목포시 원산중앙로 51,34.8099853,126.3774139,쇼핑몰,
흥진상사,전남 여수시,전라남도 여수시 이순신광장로 49,34.7393928,127.7340587,쇼핑몰,
광양 청매실농원,전남 광양시,전라남도 광양시 다압면 지막1길 55,35.0755479,127.7166651,쇼핑몰,
동박새꿈정원,전남 여수시,전라남도 여수시 오동도로 238-32,34.7443638,127.7676075,쇼핑몰,
보향다원,전남 보성군,전라남도 보성군 보성읍 동암1길 144,34.7573039,127.0760776,쇼핑몰,
여수 특산품전시판매장,전남 여수시,전라남도 여수시 봉산남9길 30-12,34.7311828,127.7279383,쇼핑몰,
여수 돌산갓장터마을갓김치,전남 여수시,전라남도 여수시 돌산읍 향일암로 359,34.6049703,127.7876963,쇼핑몰,
"구례5일장 / 구례전통시장(3, 8일)",전남 구례군,전라남도 구례군 구례읍 5일시장작은길 20,35.2101277,127.4701287,쇼핑몰,
JDC 면세점 (제주공항점),제주 제주시,제주특별자치도 제주시 공항로 2,33.5063344,126.4952613,쇼핑몰,
라온명품관,제주 제주시,제주특별자치도 제주시 한림읍 금능남로 127,33.3760556,126.2441268,쇼핑몰,
바다잔치수산,제주 제주시,제주특별자치도 제주시 탑동로 77,33.5177907,126.5170267,쇼핑몰,
제주민속식품,제주 제주시,제주특별자치도 제주시 구좌읍 번영로 2178,33.4281022,126.7510394,쇼핑몰,
서귀포매일올레시장,제주 서귀포시,제주특별자치도 서귀포시 중앙로62번길 18,33.2501708,126.5636786,쇼핑몰,
"고성5일시장 (4, 9일)",제주 서귀포시,제주특별자치도 서귀포시 성산읍 고성오조로 93,33.4517759,126.912796,쇼핑몰,
동문재래시장,제주 제주시,제주특별자치도 제주시 관덕로14길 20,33.5115817,126.526099,쇼핑몰,
"제주시민속오일시장 (2, 7일)",제주 제주시,제주특별자치도 제주시 오일장서길 26,33.4974552,126.4747907,쇼핑몰,
"한림민속5일시장(4, 9일)",제주 제주시,제주특별자치도 제주시 한림읍 한수풀로4길 10,33.4201519,126.2742341,쇼핑몰,
"세화민속오일시장(5일, 0일)",제주 제주시,제주특별자치도 제주시 구좌읍 해맞이해안로 1412,33.5259384,126.8572852,쇼핑몰,